FENGYUN 1C DEB          
1 33622U 99025DDF 17344.34868369  .00001031  00000-0  54653-3 0  9998
2 33622  99.0203  26.8299 0040591 172.3445 187.8356 14.15528811535458
